{"type": "FeatureCollection", "features": [ {"type": "Feature", "properties": {"norad_id": 37216, "name": "COSMO-SKYMED 4", "group": "resource", "lat": 57.44554773529161, "lon": 150.72486701818787, "alt_km": 616.1233482221205, "timestamp": "2025-12-07T20:38:13.734266+00:00", "meta": {"OBJECT_NAME": "COSMO-SKYMED 4", "OBJECT_ID": "2010-060A", "EPOCH": "2025-12-07T07:24:46.949472", "MEAN_MOTION": 14.8215862, "ECCENTRICITY": 0.00013629, "INCLINATION": 97.8813, "RA_OF_ASC_NODE": 162.7141, "ARG_OF_PERICENTER": 82.955, "MEAN_ANOMALY": 277.1818, "EPHEMERIS_TYPE": 0, "CLASSIFICATION_TYPE": "U", "NORAD_CAT_ID": 37216, "ELEMENT_SET_NO": 999, "REV_AT_EPOCH": 81614, "BSTAR": 0.00014436387, "MEAN_MOTION_DOT": 1.097e-05, "MEAN_MOTION_DDOT": 0}, "tle": {"line1": "1 37216U 10060A   25341.30887673  .00001097  00000+0  14436-3 0  9990", "line2": "2 37216  97.8813 162.7141 0001362  82.9550 277.1818 14.82158620816141"}}, "geometry": {"type": "Point", "coordinates": [150.72486701818787, 57.44554773529161]}}, {"type": "Feature", "properties": {"norad_id": 37387, "name": "RESOURCESAT-2", "group": "resource", "lat": 5.279624862506025, "lon": 44.614343997731986, "alt_km": 819.0571086957698, "timestamp": "2025-12-07T20:38:13.734276+00:00", "meta": {"OBJECT_NAME": "RESOURCESAT-2", "OBJECT_ID": "2011-015A", "EPOCH": "2025-12-07T07:05:54.750048", "MEAN_MOTION": 14.21594027, "ECCENTRICITY": 0.00066598, "INCLINATION": 98.7884, "RA_OF_ASC_NODE": 44.8719, "ARG_OF_PERICENTER": 56.6946, "MEAN_ANOMALY": 303.4868, "EPHEMERIS_TYPE": 0, "CLASSIFICATION_TYPE": "U", "NORAD_CAT_ID": 37387, "ELEMENT_SET_NO": 999, "REV_AT_EPOCH": 75891, "BSTAR": 0.00016284407, "MEAN_MOTION_DOT": 3.13e-06, "MEAN_MOTION_DDOT": 0}, "tle": {"line1": "1 37387U 11015A   25341.29577257  .00000313  00000+0  16284-3 0  9995", "line2": "2 37387  98.7884  44.8719 0006659  56.6946 303.4868 14.21594027758916"}}, "geometry": {"type": "Point", "coordinates": [44.614343997731986, 5.279624862506025]}}, {"type": "Feature", "properties": {"norad_id": 37781, "name": "HAIYANG-2A", "group": "resource", "lat": 78.56636057735076, "lon": -71.57319759074073, "alt_km": 959.4405937138645, "timestamp": "2025-12-07T20:38:13.734303+00:00", "meta": {"OBJECT_NAME": "HAIYANG-2A", "OBJECT_ID": "2011-043A", "EPOCH": "2025-12-07T06:18:07.788096", "MEAN_MOTION": 13.78834636, "ECCENTRICITY": 0.0001661, "INCLINATION": 99.3378, "RA_OF_ASC_NODE": 342.2815, "ARG_OF_PERICENTER": 91.8502, "MEAN_ANOMALY": 268.284, "EPHEMERIS_TYPE": 0, "CLASSIFICATION_TYPE": "U", "NORAD_CAT_ID": 37781, "ELEMENT_SET_NO": 999, "REV_AT_EPOCH": 72023, "BSTAR": 4.4334592e-05, "MEAN_MOTION_DOT": 1e-08, "MEAN_MOTION_DDOT": 0}, "tle": {"line1": "1 37781U 11043A   25341.26259014  .00000001  00000+0  44335-4 0  9992", "line2": "2 37781  99.3378 342.2815 0001661  91.8502 268.2840 13.78834636720234"}}, "geometry": {"type": "Point", "coordinates": [-71.57319759074073, 78.56636057735076]}}, {"type": "Feature", "properties": {"norad_id": 37791, "name": "RASAT", "group": "resource", "lat": 75.4844194700092, "lon": 37.98096866965171, "alt_km": 645.1633368866096, "timestamp": "2025-12-07T20:38:13.734314+00:00", "meta": {"OBJECT_NAME": "RASAT", "OBJECT_ID": "2011-044D", "EPOCH": "2025-12-07T05:39:28.395648", "MEAN_MOTION": 14.67897933, "ECCENTRICITY": 0.00219352, "INCLINATION": 98.0656, "RA_OF_ASC_NODE": 70.5753, "ARG_OF_PERICENTER": 81.6593, "MEAN_ANOMALY": 300.0382, "EPHEMERIS_TYPE": 0, "CLASSIFICATION_TYPE": "U", "NORAD_CAT_ID": 37791, "ELEMENT_SET_NO": 999, "REV_AT_EPOCH": 76502, "BSTAR": 0.00022669864, "MEAN_MOTION_DOT": 1.252e-05, "MEAN_MOTION_DDOT": 0}, "tle": {"line1": "1 37791U 11044D   25341.23574532  .00001252  00000+0  22670-3 0  9992", "line2": "2 37791  98.0656  70.5753 0021935  81.6593 300.0382 14.67897933765025"}}, "geometry": {"type": "Point", "coordinates": [37.98096866965171, 75.4844194700092]}}, {"type": "Feature", "properties": {"norad_id": 37841, "name": "SRMSAT", "group": "resource", "lat": 17.88256149405998, "lon": -159.82530030708153, "alt_km": 857.4799343086606, "timestamp": "2025-12-07T20:38:13.734324+00:00", "meta": {"OBJECT_NAME": "SRMSAT", "OBJECT_ID": "2011-058D", "EPOCH": "2025-12-07T04:06:17.615808", "MEAN_MOTION": 14.11508539, "ECCENTRICITY": 0.00117092, "INCLINATION": 19.9699, "RA_OF_ASC_NODE": 141.6553, "ARG_OF_PERICENTER": 251.5973, "MEAN_ANOMALY": 264.6047, "EPHEMERIS_TYPE": 0, "CLASSIFICATION_TYPE": "U", "NORAD_CAT_ID": 37841, "ELEMENT_SET_NO": 999, "REV_AT_EPOCH": 73065, "BSTAR": 0.00014551873, "MEAN_MOTION_DOT": 5.33e-06, "MEAN_MOTION_DDOT": 0}, "tle": {"line1": "1 37841U 11058D   25341.17103722  .00000533  00000+0  14552-3 0  9996", "line2": "2 37841  19.9699 141.6553 0011709 251.5973 264.6047 14.11508539730650"}}, "geometry": {"type": "Point", "coordinates": [-159.82530030708153, 17.88256149405998]}}, {"type": "Feature", "properties": {"norad_id": 38012, "name": "PLEIADES 1A", "group": "resource", "lat": 36.44268964634562, "lon": 48.604156615584934, "alt_km": 694.5625661987242, "timestamp": "2025-12-07T20:38:13.734335+00:00", "meta": {"OBJECT_NAME": "PLEIADES 1A", "OBJECT_ID": "2011-076F", "EPOCH": "2025-12-07T05:47:45.479904", "MEAN_MOTION": 14.58553558, "ECCENTRICITY": 0.00013431, "INCLINATION": 98.1831, "RA_OF_ASC_NODE": 54.0948, "ARG_OF_PERICENTER": 79.1328, "MEAN_ANOMALY": 312.7714, "EPHEMERIS_TYPE": 0, "CLASSIFICATION_TYPE": "U", "NORAD_CAT_ID": 38012, "ELEMENT_SET_NO": 999, "REV_AT_EPOCH": 74401, "BSTAR": 0.00019238706, "MEAN_MOTION_DOT": 8.49e-06, "MEAN_MOTION_DDOT": 0}, "tle": {"line1": "1 38012U 11076F   25341.24149861  .00000849  00000+0  19239-3 0  9996", "line2": "2 38012  98.1831  54.0948 0001343  79.1328 312.7714 14.58553558744017"}}, "geometry": {"type": "Point", "coordinates": [48.604156615584934, 36.44268964634562]}}, {"type": "Feature", "properties": {"norad_id": 38038, "name": "ZIYUAN 1-02C (ZY 1-02C)", "group": "resource", "lat": -53.98030740889348, "lon": 59.738551439156076, "alt_km": 776.5374346776407, "timestamp": "2025-12-07T20:38:13.734345+00:00", "meta": {"OBJECT_NAME": "ZIYUAN 1-02C (ZY 1-02C)", "OBJECT_ID": "2011-079A", "EPOCH": "2025-12-07T07:52:20.158176", "MEAN_MOTION": 14.38003126, "ECCENTRICITY": 0.00069726, "INCLINATION": 98.4342, "RA_OF_ASC_NODE": 47.4414, "ARG_OF_PERICENTER": 153.5102, "MEAN_ANOMALY": 279.874, "EPHEMERIS_TYPE": 0, "CLASSIFICATION_TYPE": "U", "NORAD_CAT_ID": 38038, "ELEMENT_SET_NO": 999, "REV_AT_EPOCH": 73163, "BSTAR": 0.00033167076, "MEAN_MOTION_DOT": 9.6e-06, "MEAN_MOTION_DDOT": 0}, "tle": {"line1": "1 38038U 11079A   25341.32801109  .00000960  00000+0  33167-3 0  9996", "line2": "2 38038  98.4342  47.4414 0006972 153.5102 279.8740 14.38003126731634"}}, "geometry": {"type": "Point", "coordinates": [59.738551439156076, -53.98030740889348]}}, {"type": "Feature", "properties": {"norad_id": 38046, "name": "ZIYUAN 3-1 (ZY 3-1)", "group": "resource", "lat": -20.788999736485987, "lon": 50.9084980547143, "alt_km": 369.91798148531143, "timestamp": "2025-12-07T20:38:13.734355+00:00", "meta": {"OBJECT_NAME": "ZIYUAN 3-1 (ZY 3-1)", "OBJECT_ID": "2012-001A", "EPOCH": "2025-12-07T06:56:16.937952", "MEAN_MOTION": 15.67541747, "ECCENTRICITY": 0.00019997, "INCLINATION": 97.1761, "RA_OF_ASC_NODE": 47.5833, "ARG_OF_PERICENTER": 16.7912, "MEAN_ANOMALY": 343.3415, "EPHEMERIS_TYPE": 0, "CLASSIFICATION_TYPE": "U", "NORAD_CAT_ID": 38046, "ELEMENT_SET_NO": 999, "REV_AT_EPOCH": 77411, "BSTAR": 0.00085556398, "MEAN_MOTION_DOT": 0.00093621, "MEAN_MOTION_DDOT": 0}, "tle": {"line1": "1 38046U 12001A   25341.28908493  .00093621  00000+0  85556-3 0  9995", "line2": "2 38046  97.1761  47.5833 0001999  16.7912 343.3415 15.67541747774118"}}, "geometry": {"type": "Point", "coordinates": [50.9084980547143, -20.788999736485987]}}, {"type": "Feature", "properties": {"norad_id": 38338, "name": "ARIRANG-3 (KOMPSAT-3)", "group": "resource", "lat": -58.08324327963395, "lon": 102.80448723880097, "alt_km": 696.5323346942905, "timestamp": "2025-12-07T20:38:13.734365+00:00", "meta": {"OBJECT_NAME": "ARIRANG-3 (KOMPSAT-3)", "OBJECT_ID": "2012-025B", "EPOCH": "2025-12-07T06:24:12.601728", "MEAN_MOTION": 14.61701609, "ECCENTRICITY": 0.00057506, "INCLINATION": 98.3316, "RA_OF_ASC_NODE": 295.8152, "ARG_OF_PERICENTER": 356.5168, "MEAN_ANOMALY": 3.5992, "EPHEMERIS_TYPE": 0, "CLASSIFICATION_TYPE": "U", "NORAD_CAT_ID": 38338, "ELEMENT_SET_NO": 999, "REV_AT_EPOCH": 72330, "BSTAR": 0.00024712129, "MEAN_MOTION_DOT": 1.183e-05, "MEAN_MOTION_DDOT": 0}, "tle": {"line1": "1 38338U 12025B   25341.26681252  .00001183  00000+0  24712-3 0  9993", "line2": "2 38338  98.3316 295.8152 0005750 356.5168   3.5992 14.61701609723308"}}, "geometry": {"type": "Point", "coordinates": [102.80448723880097, -58.08324327963395]}}, {"type": "Feature", "properties": {"norad_id": 38709, "name": "EXACTVIEW-1 (ADS-1B)", "group": "resource", "lat": 17.37629005115192, "lon": -87.02168004367084, "alt_km": 816.2980843840887, "timestamp": "2025-12-07T20:38:13.734375+00:00", "meta": {"OBJECT_NAME": "EXACTVIEW-1 (ADS-1B)", "OBJECT_ID": "2012-039C", "EPOCH": "2025-12-07T06:23:46.166784", "MEAN_MOTION": 14.24904531, "ECCENTRICITY": 0.00109583, "INCLINATION": 98.9635, "RA_OF_ASC_NODE": 89.5417, "ARG_OF_PERICENTER": 9.9723, "MEAN_ANOMALY": 350.1671, "EPHEMERIS_TYPE": 0, "CLASSIFICATION_TYPE": "U", "NORAD_CAT_ID": 38709, "ELEMENT_SET_NO": 999, "REV_AT_EPOCH": 69537, "BSTAR": 0.00015799853, "MEAN_MOTION_DOT": 3.23e-06, "MEAN_MOTION_DDOT": 0}, "tle": {"line1": "1 38709U 12039C   25341.26650656  .00000323  00000+0  15800-3 0  9997", "line2": "2 38709  98.9635  89.5417 0010958   9.9723 350.1671 14.24904531695372"}}, "geometry": {"type": "Point", "coordinates": [-87.02168004367084, 17.37629005115192]}}]}